[{"OBJECT_NAME":"STARLINK-31972","OBJECT_ID":"2024-106B","EPOCH":"2026-03-09T02:44:34.849536","MEAN_MOTION":15.27594941,"ECCENTRICITY":0.00030739,"INCLINATION":43.009,"RA_OF_ASC_NODE":335.8745,"ARG_OF_PERICENTER":262.8714,"MEAN_ANOMALY":97.1788,"EPHEMERIS_TYPE":0,"CLASSIFICATION_TYPE":"U","NORAD_CAT_ID":59923,"ELEMENT_SET_NO":999,"REV_AT_EPOCH":10048,"BSTAR":-0.00014339191,"MEAN_MOTION_DOT":-4.209e-5,"MEAN_MOTION_DDOT":0},{"OBJECT_NAME":"CZ-4B R\/B","OBJECT_ID":"2008-053C","EPOCH":"2026-03-09T16:52:55.405920","MEAN_MOTION":15.20774751,"ECCENTRICITY":0.00860777,"INCLINATION":97.7895,"RA_OF_ASC_NODE":133.277,"ARG_OF_PERICENTER":241.1085,"MEAN_ANOMALY":118.1494,"EPHEMERIS_TYPE":0,"CLASSIFICATION_TYPE":"U","NORAD_CAT_ID":33410,"ELEMENT_SET_NO":999,"REV_AT_EPOCH":94950,"BSTAR":0.00029822835,"MEAN_MOTION_DOT":7.181e-5,"MEAN_MOTION_DDOT":0}]
